{
  "norad_id": 55406,
  "name": "STARLINK-5630",
  "history": [
    {
      "epoch": "2026-04-13T00:22:19.227648Z",
      "apogee_km": 573.7446798082256,
      "perigee_km": 570.3011535759024,
      "latitude_deg": -1.93716318167833e-05,
      "longitude_deg": 131.25843071306187,
      "height_km": 574.4102186272083,
      "semi_major_axis_km": 6950.159916692064,
      "eccentricity": 0.00024773,
      "inclination_deg": 69.9994,
      "raan_deg": 338.0509,
      "arg_perigee_deg": 271.3173,
      "mean_anomaly_deg": 88.7702,
      "mean_motion_rev_day": 14.98340663
    },
    {
      "epoch": "2026-04-14T21:14:05.613216Z",
      "apogee_km": 573.7999855138078,
      "perigee_km": 570.3582384951424,
      "latitude_deg": -6.94517415265822e-05,
      "longitude_deg": 171.75908808454582,
      "height_km": 574.4050111785701,
      "semi_major_axis_km": 6950.216112004475,
      "eccentricity": 0.0002476,
      "inclination_deg": 69.9983,
      "raan_deg": 333.3373,
      "arg_perigee_deg": 273.3606,
      "mean_anomaly_deg": 86.7269,
      "mean_motion_rev_day": 14.98322491
    },
    {
      "epoch": "2026-04-15T21:16:06.428928Z",
      "apogee_km": 573.7361082801481,
      "perigee_km": 570.3763848647559,
      "latitude_deg": 6.297216710144707e-05,
      "longitude_deg": 167.74341593799366,
      "height_km": 574.4029905260329,
      "semi_major_axis_km": 6950.193246572452,
      "eccentricity": 0.0002417,
      "inclination_deg": 69.9988,
      "raan_deg": 330.812,
      "arg_perigee_deg": 272.7298,
      "mean_anomaly_deg": 87.3585,
      "mean_motion_rev_day": 14.98329885
    },
    {
      "epoch": "2026-04-16T00:28:22.477440Z",
      "apogee_km": 573.7073004385456,
      "perigee_km": 570.3959525693353,
      "latitude_deg": -3.897765209949597e-05,
      "longitude_deg": 119.20840808627261,
      "height_km": 574.388145478752,
      "semi_major_axis_km": 6950.18862650394,
      "eccentricity": 0.00023822,
      "inclination_deg": 69.9989,
      "raan_deg": 330.4755,
      "arg_perigee_deg": 273.1233,
      "mean_anomaly_deg": 86.9653,
      "mean_motion_rev_day": 14.98331379
    },
    {
      "epoch": "2026-04-17T21:20:07.753632Z",
      "apogee_km": 573.6878031181086,
      "perigee_km": 570.3860534917276,
      "latitude_deg": 6.066423939541297e-05,
      "longitude_deg": 159.7139556819227,
      "height_km": 574.3574048366822,
      "semi_major_axis_km": 6950.173928304918,
      "eccentricity": 0.00023753,
      "inclination_deg": 69.9987,
      "raan_deg": 325.7621,
      "arg_perigee_deg": 273.6891,
      "mean_anomaly_deg": 86.3997,
      "mean_motion_rev_day": 14.98336132
    },
    {
      "epoch": "2026-04-18T21:22:08.321376Z",
      "apogee_km": 573.6724183141796,
      "perigee_km": 570.3919384619812,
      "latitude_deg": -2.760457165465646e-05,
      "longitude_deg": 155.69933784407115,
      "height_km": 574.3368151821801,
      "semi_major_axis_km": 6950.169178388081,
      "eccentricity": 0.000236,
      "inclination_deg": 69.9984,
      "raan_deg": 323.2369,
      "arg_perigee_deg": 274.2666,
      "mean_anomaly_deg": 85.8223,
      "mean_motion_rev_day": 14.98337668
    },
    {
      "epoch": "2026-04-19T19:48:01.264032Z",
      "apogee_km": 573.3953183715403,
      "perigee_km": 570.6527848205806,
      "latitude_deg": 6.906043767448082e-05,
      "longitude_deg": 175.94825364585034,
      "height_km": 574.2988580121477,
      "semi_major_axis_km": 6950.16105159606,
      "eccentricity": 0.0001973,
      "inclination_deg": 69.9989,
      "raan_deg": 320.8776,
      "arg_perigee_deg": 276.341,
      "mean_anomaly_deg": 83.7525,
      "mean_motion_rev_day": 14.98340296
    },
    {
      "epoch": "2026-04-20T07:00:56.830752Z",
      "apogee_km": 574.0337307293876,
      "perigee_km": 569.9011986146952,
      "latitude_deg": -6.788016378076467e-05,
      "longitude_deg": 6.078173648466507,
      "height_km": 574.2059464514386,
      "semi_major_axis_km": 6950.104464672041,
      "eccentricity": 0.0002973,
      "inclination_deg": 69.9982,
      "raan_deg": 319.6997,
      "arg_perigee_deg": 275.243,
      "mean_anomaly_deg": 84.8389,
      "mean_motion_rev_day": 14.98358595
    },
    {
      "epoch": "2026-04-21T19:52:04.204416Z",
      "apogee_km": 572.7882284610605,
      "perigee_km": 571.202208288827,
      "latitude_deg": 1.598763262692267e-05,
      "longitude_deg": 167.91171683341753,
      "height_km": 575.0457981837192,
      "semi_major_axis_km": 6950.1322183749435,
      "eccentricity": 0.0001141,
      "inclination_deg": 70.0027,
      "raan_deg": 315.8274,
      "arg_perigee_deg": 217.9344,
      "mean_anomaly_deg": 142.1735,
      "mean_motion_rev_day": 14.9834962
    },
    {
      "epoch": "2026-04-22T19:54:04.004064Z",
      "apogee_km": 573.5116992988897,
      "perigee_km": 570.6037378286419,
      "latitude_deg": -2.9384916757824404e-05,
      "longitude_deg": 163.90022110168056,
      "height_km": 574.5034679068043,
      "semi_major_axis_km": 6950.1947185637655,
      "eccentricity": 0.0002092,
      "inclination_deg": 69.9993,
      "raan_deg": 313.3021,
      "arg_perigee_deg": 269.2397,
      "mean_anomaly_deg": 90.8522,
      "mean_motion_rev_day": 14.98329409
    },
    {
      "epoch": "2026-04-22T23:06:20.189952Z",
      "apogee_km": 573.5745425727755,
      "perigee_km": 570.5449518106743,
      "latitude_deg": -2.5439728678405072e-05,
      "longitude_deg": 115.36467702772028,
      "height_km": 574.4985811033714,
      "semi_major_axis_km": 6950.196747191725,
      "eccentricity": 0.00021795,
      "inclination_deg": 69.9993,
      "raan_deg": 312.9656,
      "arg_perigee_deg": 269.5354,
      "mean_anomaly_deg": 90.5555,
      "mean_motion_rev_day": 14.98328753
    },
    {
      "epoch": "2026-04-24T19:58:05.759040Z",
      "apogee_km": 573.7335238694395,
      "perigee_km": 570.3668531953153,
      "latitude_deg": -8.094500340040858e-06,
      "longitude_deg": 155.8705655899679,
      "height_km": 574.3615646395054,
      "semi_major_axis_km": 6950.187188532377,
      "eccentricity": 0.0002422,
      "inclination_deg": 69.998,
      "raan_deg": 308.2538,
      "arg_perigee_deg": 273.9283,
      "mean_anomaly_deg": 86.1599,
      "mean_motion_rev_day": 14.98331844
    },
    {
      "epoch": "2026-04-25T20:00:06.574752Z",
      "apogee_km": 573.7354402760084,
      "perigee_km": 570.3576510728108,
      "latitude_deg": -2.9786948102912557e-05,
      "longitude_deg": 151.8549355035919,
      "height_km": 574.345125694313,
      "semi_major_axis_km": 6950.183545674409,
      "eccentricity": 0.000243,
      "inclination_deg": 69.9978,
      "raan_deg": 305.7286,
      "arg_perigee_deg": 274.3504,
      "mean_anomaly_deg": 85.7377,
      "mean_motion_rev_day": 14.98333022
    },
    {
      "epoch": "2026-04-26T20:02:07.627200Z",
      "apogee_km": 573.7472461462958,
      "perigee_km": 570.3615299135308,
      "latitude_deg": 1.0063729751322303e-05,
      "longitude_deg": 147.8387392503333,
      "height_km": 574.4890601214843,
      "semi_major_axis_km": 6950.191388029913,
      "eccentricity": 0.00024357,
      "inclination_deg": 69.9977,
      "raan_deg": 303.2038,
      "arg_perigee_deg": 269.7306,
      "mean_anomaly_deg": 90.3574,
      "mean_motion_rev_day": 14.98330486
    },
    {
      "epoch": "2026-04-27T20:04:08.558688Z",
      "apogee_km": 573.61962710641,
      "perigee_km": 570.4850917053182,
      "latitude_deg": 2.1320960447094515e-05,
      "longitude_deg": 143.82213835028793,
      "height_km": 574.5345897671529,
      "semi_major_axis_km": 6950.189359405864,
      "eccentricity": 0.0002255,
      "inclination_deg": 69.998,
      "raan_deg": 300.6781,
      "arg_perigee_deg": 267.9638,
      "mean_anomaly_deg": 92.1263,
      "mean_motion_rev_day": 14.98331142
    },
    {
      "epoch": "2026-04-28T18:30:01.442592Z",
      "apogee_km": 573.7357580746302,
      "perigee_km": 570.3704760199571,
      "latitude_deg": 2.238203900367741e-05,
      "longitude_deg": 164.07376673229032,
      "height_km": 574.4155618046846,
      "semi_major_axis_km": 6950.190117047294,
      "eccentricity": 0.0002421,
      "inclination_deg": 69.9981,
      "raan_deg": 298.3213,
      "arg_perigee_deg": 272.1889,
      "mean_anomaly_deg": 87.8993,
      "mean_motion_rev_day": 14.98330897
    },
    {
      "epoch": "2026-04-29T20:08:10.490784Z",
      "apogee_km": 573.6411761334048,
      "perigee_km": 570.4732776047977,
      "latitude_deg": 9.069977886514432e-05,
      "longitude_deg": 135.78916422598863,
      "height_km": 574.4209822878965,
      "semi_major_axis_km": 6950.194226869101,
      "eccentricity": 0.0002279,
      "inclination_deg": 69.9985,
      "raan_deg": 295.6272,
      "arg_perigee_deg": 272.2731,
      "mean_anomaly_deg": 87.8168,
      "mean_motion_rev_day": 14.98329568
    },
    {
      "epoch": "2026-04-30T13:45:38.998656Z",
      "apogee_km": 573.7605186925548,
      "perigee_km": 570.3357454668712,
      "latitude_deg": -6.693310199551794e-05,
      "longitude_deg": -131.15469187424918,
      "height_km": 574.4460380386137,
      "semi_major_axis_km": 6950.185132079712,
      "eccentricity": 0.00024638,
      "inclination_deg": 69.9984,
      "raan_deg": 293.776,
      "arg_perigee_deg": 270.9667,
      "mean_anomaly_deg": 89.1209,
      "mean_motion_rev_day": 14.98332509
    },
    {
      "epoch": "2026-05-02T04:12:52.335936Z",
      "apogee_km": 573.7299059482975,
      "perigee_km": 570.346560644728,
      "latitude_deg": -1.983632710600594e-05,
      "longitude_deg": 6.420313700560627,
      "height_km": 574.5110237719663,
      "semi_major_axis_km": 6950.1752332965125,
      "eccentricity": 0.0002434,
      "inclination_deg": 69.999,
      "raan_deg": 289.7358,
      "arg_perigee_deg": 268.4427,
      "mean_anomaly_deg": 91.6453,
      "mean_motion_rev_day": 14.9833571
    }
  ]
}